{
    "links": {
        "self": "http://www.neowsapp.com/rest/v1/neo/3712621?api_key=iIulBulltgU6a56xZRHN4H3l9WmuAYTsLGpBGhQ2"
    },
    "id": "3712621",
    "neo_reference_id": "3712621",
    "name": "(2015 DB200)",
    "designation": "2015 DB200",
    "nasa_jpl_url": "http://ssd.jpl.nasa.gov/sbdb.cgi?sstr=3712621",
    "absolute_magnitude_h": 24.5,
    "estimated_diameter": {
        "kilometers": {
            "estimated_diameter_min": 0.0334622374,
            "estimated_diameter_max": 0.0748238376
        },
        "meters": {
            "estimated_diameter_min": 33.4622374455,
            "estimated_diameter_max": 74.8238376074
        },
        "miles": {
            "estimated_diameter_min": 0.0207924639,
            "estimated_diameter_max": 0.0464933628
        },
        "feet": {
            "estimated_diameter_min": 109.7842471007,
            "estimated_diameter_max": 245.4850393757
        }
    },
    "is_potentially_hazardous_asteroid": false,
    "close_approach_data": [
        {
            "close_approach_date": "2015-02-28",
            "close_approach_date_full": "2015-Feb-28 01:11",
            "epoch_date_close_approach": 1425085860000,
            "relative_velocity": {
                "kilometers_per_second": "6.15819727",
                "kilometers_per_hour": "22169.5101719509",
                "miles_per_hour": "13775.2714732325"
            },
            "miss_distance": {
                "astronomical": "0.1544899014",
                "lunar": "60.0965716446",
                "kilometers": "23111360.185950018",
                "miles": "14360733.3034975284"
            },
            "orbiting_body": "Earth"
        }
    ],
    "orbital_data": {
        "orbit_id": "3",
        "orbit_determination_date": "2017-04-06 08:35:21",
        "first_observation_date": "2015-02-22",
        "last_observation_date": "2015-02-27",
        "data_arc_in_days": 5,
        "observations_used": 9,
        "orbit_uncertainty": "9",
        "minimum_orbit_intersection": ".144611",
        "jupiter_tisserand_invariant": "4.668",
        "epoch_osculation": "2457076.5",
        "eccentricity": ".2032317177778342",
        "semi_major_axis": "1.419890839072363",
        "inclination": "11.2015798456733",
        "ascending_node_longitude": "329.3179293988381",
        "orbital_period": "617.9891676248262",
        "perihelion_distance": "1.131323984790676",
        "perihelion_argument": "192.6988097322259",
        "aphelion_distance": "1.708457693354049",
        "perihelion_time": "2457081.993759324309",
        "mean_anomaly": "356.7996957546157",
        "mean_motion": ".5825344825761601",
        "equinox": "J2000",
        "orbit_class": {
            "orbit_class_type": "AMO",
            "orbit_class_description": "Near-Earth asteroid orbits similar to that of 1221 Amor",
            "orbit_class_range": "1.017 AU < q (perihelion) < 1.3 AU"
        }
    },
    "is_sentry_object": false
}